GSAT0101 (PRN E11)      
1 37846U 11060A   21184.81922869 -.00000085  00000-0  00000-0 0  9991
2 37846  56.8466  30.8332 0003355  38.3061 321.7711  1.70475456 60277
GSAT0102 (PRN E12)      
1 37847U 11060B   21184.44792936 -.00000086  00000-0  00000+0 0  9991
2 37847  56.8475  30.8428 0003058 359.7384 178.7638  1.70475659 60398
GSAT0103 (PRN E19)      
1 38857U 12055A   21185.44678686  .00000041  00000-0  00000-0 0  9995
2 38857  55.0529 151.2706 0004833 272.4042  87.5035  1.70473843 54172
GSAT0104 (PRN E20)      
1 38858U 12055B   21184.24434037  .00000044  00000-0  00000+0 0  9995
2 38858  55.0512 151.3051 0002508 278.3203  81.6166  1.70474153 54265
GSAT0201 (PRN E18)      
1 40128U 14050A   21184.47616455 -.00000124  00000-0  00000-0 0  9997
2 40128  50.4694 346.1844 1648089 111.9598 266.3735  1.85518944 44741
GSAT0202 (PRN E14)      
1 40129U 14050B   21185.27745174 -.00000123  00000-0  00000-0 0  9997
2 40129  50.4997 345.2022 1645224 112.7996 265.4238  1.85519621 46928
GSAT0203 (PRN E26)      
1 40544U 15017A   21185.77410881 -.00000081  00000-0  00000+0 0  9993
2 40544  56.6403  30.8883 0001244 235.7099 124.3339  1.70474806 39036
GSAT0204 (PRN E22)      
1 40545U 15017B   21186.02711373 -.00000080  00000-0  00000-0 0  9993
2 40545  56.6474  30.8922 0001387 191.5824 168.4706  1.70475880  1424
GSAT0205 (PRN E24)      
1 40889U 15045A   21185.79508287 -.00000024  00000-0  00000-0 0  9994
2 40889  55.8615 271.5637 0003194  10.6415 349.4172  1.70475876 36189
GSAT0206 (PRN E30)      
1 40890U 15045B   21184.25482215 -.00000034  00000-0  00000+0 0  9998
2 40890  55.8609 271.6024 0001629 332.8631  27.1762  1.70475739 36188
GSAT0209 (PRN E09)      
1 41174U 15079A   21186.18914982  .00000039  00000-0  00000-0 0  9991
2 41174  55.0670 150.9510 0005519 308.2150  51.6957  1.70473121 33951
GSAT0208 (PRN E08)      
1 41175U 15079B   21185.23565307  .00000041  00000-0  00000-0 0  9993
2 41175  55.0682 150.9759 0004700 307.0476  52.8727  1.70473189 34356
GSAT0211 (PRN E02)      
1 41549U 16030A   21185.35645830 -.00000027  00000-0  00000-0 0  9994
2 41549  56.0051 271.4684 0003328 300.8853  59.1326  1.70475520 31839
GSAT0210 (PRN E01)      
1 41550U 16030B   21184.47607747 -.00000033  00000-0  00000-0 0  9990
2 41550  56.0050 271.4939 0003411 266.2284  93.7810  1.70475580 31815
GSAT0207 (PRN E07)      
1 41859U 16069A   21185.30859344  .00000041  00000-0  00000+0 0  9996
2 41859  54.7259 151.2426 0005521 296.8597  63.0472  1.70473046 28780
GSAT0212 (PRN E03)      
1 41860U 16069B   21184.57542893  .00000042  00000-0  00000-0 0  9996
2 41860  54.7233 151.2611 0004342 314.4683  45.4609  1.70473087 28807
GSAT0213 (PRN E04)      
1 41861U 16069C   21186.11423815  .00000039  00000-0  00000-0 0  9997
2 41861  54.7259 151.2232 0004954 279.2688  80.6361  1.70473223 28692
GSAT0214 (PRN E05)      
1 41862U 16069D   21185.67469456  .00000040  00000-0  00000-0 0  9991
2 41862  54.7242 151.2302 0004121 283.6776  76.2388  1.70473113 28818
GSAT0215 (PRN E21)      
1 43055U 17079A   21184.99236788 -.00000029  00000-0  00000-0 0  9991
2 43055  55.9799 271.3158 0002528 258.9101 101.1113  1.70474740 22144
GSAT0216 (PRN E25)      
1 43056U 17079B   21186.45802486 -.00000018  00000-0  00000-0 0  9997
2 43056  55.9796 271.2754 0004615 266.0758  93.9269  1.70474827 22180
GSAT0217 (PRN E27)      
1 43057U 17079C   21181.39890860 -.00000040  00000-0  00000-0 0  9994
2 43057  55.9808 271.4146 0003644 279.7141  80.2955  1.70474778 22085
GSAT0218 (PRN E31)      
1 43058U 17079D   21186.31159364 -.00000019  00000-0  00000-0 0  9995
2 43058  55.9779 271.2770 0005113 263.1668  96.8298  1.70474752 22195
GSAT0221 (PRN E15)      
1 43564U 18060A   21185.62371775 -.00000081  00000-0  00000-0 0  9992
2 43564  57.0262  30.6186 0001909 288.8195  71.2151  1.70475878 18339
GSAT0222 (PRN E33)      
1 43565U 18060B   21184.08380263 -.00000087  00000-0  00000-0 0  9990
2 43565  57.0279  30.6604 0001821 309.9761  50.0594  1.70475837 18353
GSAT0219 (PRN E36)      
1 43566U 18060C   21186.06414002 -.00000079  00000-0  00000-0 0  9991
2 43566  57.0284  30.6086 0001505 317.2823  42.7624  1.70475894 18360
GSAT0220 (PRN E13)      
1 43567U 18060D   21185.69740373 -.00000080  00000-0  00000-0 0  9995
2 43567  57.0284  30.6186 0001402 302.4506  57.5914  1.70475877 18347
